{
  "norad_id": 65483,
  "name": "STARLINK-35037",
  "history": [
    {
      "epoch": "2026-03-28T11:49:54.516576Z",
      "apogee_km": 476.1319884364784,
      "perigee_km": 474.2215586889597,
      "latitude_deg": 6.790422451831055e-06,
      "longitude_deg": 167.34500171457535,
      "height_km": 475.9069787544429,
      "semi_major_axis_km": 6853.313773562719,
      "eccentricity": 0.00013938,
      "inclination_deg": 53.1598,
      "raan_deg": 170.7348,
      "arg_perigee_deg": 79.8877,
      "mean_anomaly_deg": 280.2281,
      "mean_motion_rev_day": 15.30212826
    },
    {
      "epoch": "2026-03-29T22:19:05.138112Z",
      "apogee_km": 476.2911974054923,
      "perigee_km": 474.06825559208573,
      "latitude_deg": -7.514925464387026e-06,
      "longitude_deg": 1.9599335833328577,
      "height_km": 475.9999050609799,
      "semi_major_axis_km": 6853.316726498789,
      "eccentricity": 0.00016218,
      "inclination_deg": 53.1596,
      "raan_deg": 164.0603,
      "arg_perigee_deg": 86.0081,
      "mean_anomaly_deg": 274.1105,
      "mean_motion_rev_day": 15.30211837
    },
    {
      "epoch": "2026-03-30T13:59:37.197888Z",
      "apogee_km": 475.975341962484,
      "perigee_km": 474.4662325777281,
      "latitude_deg": 6.891063897008949e-05,
      "longitude_deg": 123.1505359592334,
      "height_km": 475.9952081139329,
      "semi_major_axis_km": 6853.357787270106,
      "eccentricity": 0.0001101,
      "inclination_deg": 53.1604,
      "raan_deg": 161.0282,
      "arg_perigee_deg": 80.5461,
      "mean_anomaly_deg": 279.5665,
      "mean_motion_rev_day": 15.30198085
    },
    {
      "epoch": "2026-03-30T21:49:53.127552Z",
      "apogee_km": 475.94141315093566,
      "perigee_km": 474.43477816190534,
      "latitude_deg": 3.3511856036244235e-05,
      "longitude_deg": 3.7437510697990475,
      "height_km": 476.05599083482866,
      "semi_major_axis_km": 6853.32509565642,
      "eccentricity": 0.00010992,
      "inclination_deg": 53.1609,
      "raan_deg": 159.5097,
      "arg_perigee_deg": 87.6789,
      "mean_anomaly_deg": 272.4338,
      "mean_motion_rev_day": 15.30209034
    },
    {
      "epoch": "2026-03-31T13:30:24.318144Z",
      "apogee_km": 476.4126160949263,
      "perigee_km": 473.9618673460873,
      "latitude_deg": 1.8839892744067545e-05,
      "longitude_deg": 124.93681727650116,
      "height_km": 476.4641316433595,
      "semi_major_axis_km": 6853.3242417205065,
      "eccentricity": 0.0001788,
      "inclination_deg": 53.1597,
      "raan_deg": 156.4765,
      "arg_perigee_deg": 252.1611,
      "mean_anomaly_deg": 107.9195,
      "mean_motion_rev_day": 15.3020932
    }
  ]
}